IRIDIUM 136             
1 42962U 17061H   24126.84628405  .00000170  00000+0  53630-4 0  9998
2 42962  86.3987 348.0260 0002444  81.5370 278.6103 14.34217629344138
